ONEWEB-0326             
1 49195U 21083K   24091.60116813  .00000048  00000+0  89784-4 0  9995
2 49195  87.9164 136.2198 0002666  94.0620 266.0817 13.18685244123565
ONEWEB-0327             
1 49196U 21083L   24091.57507647  .00000066  00000+0  13500-3 0  9993
2 49196  87.9165 136.2366 0002412  91.5783 268.5626 13.18685920123583
ONEWEB-0328             
1 49197U 21083M   24091.58657134  .00000076  00000+0  17241-3 0  9999
2 49197  87.8899 121.0067 0002120  97.1599 262.9771 13.13471328124883
ONEWEB-0331             
1 49198U 21083N   24091.59483739 -.00000005  00000+0 -44665-4 0  9994
2 49198  87.9165 136.2138 0002234  98.1984 261.9402 13.18684836123573
ONEWEB-0333             
1 49199U 21083P   24091.58180055 -.00000176  00000+0 -51554-3 0  9992
2 49199  87.8912 121.0255 0001812  91.9214 268.2123 13.13473172124893
ONEWEB-0334             
1 49200U 21083Q   24091.46782202  .00000009  00000+0 -10535-4 0  9993
2 49200  87.9141  75.2121 0001469  62.1962 297.9320 13.20769607130176
ONEWEB-0335             
1 49201U 21083R   24091.57705234 -.00000240  00000+0 -69308-3 0  9995
2 49201  87.8912 121.0149 0002040  98.5445 261.5915 13.13470787124908
ONEWEB-0336             
1 49202U 21083S   24091.54690799  .00000101  00000+0  24092-3 0  9997
2 49202  87.8912 121.0180 0001936  89.3010 270.8341 13.13469230124898
ONEWEB-0337             
1 49203U 21083T   24091.55628388 -.00000140  00000+0 -41750-3 0  9999
2 49203  87.8912 121.0148 0002088  98.5702 261.5663 13.13469851124895
ONEWEB-0338             
1 49204U 21083U   24091.47413298  .00000002  00000+0 -26251-4 0  9999
2 49204  87.9145  75.1898 0001479  85.9784 274.1518 13.20769385130191
ONEWEB-0339             
1 49205U 21083V   24091.56753330 -.00000303  00000+0 -86469-3 0  9995
2 49205  87.8911 121.0096 0001993  99.6774 260.4580 13.13469691124879
ONEWEB-0340             
1 49206U 21083W   24091.58061646 -.00000006  00000+0 -49110-4 0  9993
2 49206  87.9165 136.2107 0002218  97.3426 262.7958 13.18685649123537
ONEWEB-0341             
1 49207U 21083X   24091.58851964 -.00000007  00000+0 -49850-4 0  9996
2 49207  87.9166 136.2240 0002262 117.8294 242.3068 13.18687590123552
ONEWEB-0342             
1 49208U 21083Y   24091.48046596  .00000030  00000+0  41703-4 0  9996
2 49208  87.9136  75.2051 0001717  83.9175 276.2154 13.20772214130165
ONEWEB-0343             
1 49209U 21083Z   24091.58377450  .00000000  00000+0 -33687-4 0  9994
2 49209  87.9157 136.2366 0002011 115.9146 244.2194 13.18686934123608
ONEWEB-0344             
1 49210U 21083AA  24091.53420636  .00000347  00000+0  91577-3 0  9990
2 49210  87.8914 121.0309 0002222  94.5792 265.5591 13.13470487124878
ONEWEB-0345             
1 49211U 21083AB  24091.55166194 -.00000009  00000+0 -58694-4 0  9990
2 49211  87.8911 121.0047 0002432 104.4449 255.6950 13.13470024124885
ONEWEB-0346             
1 49212U 21083AC  24091.59326309  .00000046  00000+0  82710-4 0  9996
2 49212  87.9165 136.2315 0002486  94.6683 265.4733 13.18685605123541
ONEWEB-0348             
1 49213U 21083AD  24091.47097318 -.00000270  00000+0 -69547-3 0  9992
2 49213  87.9147  75.1719 0002576  94.6295 265.5132 13.20770965130190
ONEWEB-0350             
1 49214U 21083AE  24091.56118850 -.00000251  00000+0 -72104-3 0  9990
2 49214  87.8910 120.9943 0002280 102.3310 257.8074 13.13469477124910
ONEWEB-0351             
1 49215U 21083AF  24091.46467485  .00000052  00000+0  96510-4 0  9996
2 49215  87.9143  75.1759 0001019  70.5767 289.5476 13.20770535130156
ONEWEB-0352             
1 49216U 21083AG  24091.54214660  .00000256  00000+0  66687-3 0  9998
2 49216  87.8912 121.0269 0001695  96.3332 263.7990 13.13469522125007
ONEWEB-0354             
1 49217U 21083AH  24091.48991074  .00000041  00000+0  68354-4 0  9999
2 49217  87.9147  75.1528 0001981  97.4974 262.6384 13.20774009130196
ONEWEB-0355             
1 49218U 21083AJ  24091.57228628 -.00000274  00000+0 -78576-3 0  9994
2 49218  87.8913 121.0200 0001908  99.3921 260.7424 13.13471210124880
ONEWEB-0357             
1 49219U 21083AK  24091.48677570  .00000019  00000+0  15002-4 0  9990
2 49219  87.9143  75.1743 0001986  88.5936 271.5425 13.20770881130196
ONEWEB-0332             
1 49279U 21090A   24091.53283269  .00000200  00000+0  50616-3 0  9999
2 49279  87.8894  90.4495 0001664  78.7109 281.4207 13.14502483121477
ONEWEB-0347             
1 49280U 21090B   24091.47728427 -.00000009  00000+0 -52913-4 0  9996
2 49280  87.9145  75.1733 0001643  73.3234 286.8079 13.20774105124424
ONEWEB-0349             
1 49281U 21090C   24091.50886239  .00000129  00000+0  28526-3 0  9990
2 49281  87.9147  75.1652 0002152  92.2002 267.9378 13.20769880123218
ONEWEB-0353             
1 49282U 21090D   24091.52490159  .00000324  00000+0  83871-3 0  9996
2 49282  87.8895  90.4356 0001682  80.7771 279.3549 13.14504216121477
ONEWEB-0356             
1 49283U 21090E   24091.50728597  .00000080  00000+0  16545-3 0  9998
2 49283  87.9147  75.1610 0002759  73.7530 286.3907 13.20769866123214
ONEWEB-0358             
1 49284U 21090F   24091.46153286  .00000033  00000+0  48102-4 0  9994
2 49284  87.9147  75.1560 0002264  88.6758 271.4635 13.20772372123935
ONEWEB-0359             
1 49285U 21090G   24091.45837355  .00000069  00000+0  13771-3 0  9992
2 49285  87.9147  75.1762 0002139 100.8788 259.2586 13.20772494123913
ONEWEB-0360             
1 49286U 21090H   24091.44887882 -.00005695  00000+0 -14043-1 0  9995
2 49286  87.9145  75.1826 0002344  83.3297 276.8103 13.20797559123224
ONEWEB-0361             
1 49287U 21090J   24091.50569665  .00000120  00000+0  26310-3 0  9997
2 49287  87.9147  75.1654 0002009  83.1267 277.0095 13.20768920123682
ONEWEB-0362             
1 49288U 21090K   24091.57674146  .00000012  00000+0 -17901-5 0  9995
2 49288  87.9100 105.7377 0001692 100.5152 259.6171 13.19723437120396
ONEWEB-0363             
1 49289U 21090L   24091.44573128  .00000087  00000+0  18166-3 0  9993
2 49289  87.9148  75.1728 0002344  82.3857 277.7543 13.20769471123682
ONEWEB-0364             
1 49290U 21090M   24091.48359581  .00000027  00000+0  33340-4 0  9990
2 49290  87.9148  75.1888 0001792  80.3114 279.8222 13.20773272124829
ONEWEB-0365             
1 49291U 21090N   24091.58621773  .00000082  00000+0  17277-3 0  9998
2 49291  87.9090 105.7212 0001825  92.8335 267.3007 13.19723109119905
ONEWEB-0366             
1 49292U 21090P   24091.52173493  .00000311  00000+0  80400-3 0  9997
2 49292  87.8895  90.4446 0001876  82.3571 277.7771 13.14503722121457
ONEWEB-0367             
1 49293U 21090Q   24091.51990801  .00000159  00000+0  36014-3 0  9999
2 49293  87.9147  75.1523 0001832  78.0400 282.0939 13.20769809123218
ONEWEB-0368             
1 49294U 21090R   24091.49307117  .00000012  00000+0 -19075-5 0  9998
2 49294  87.9148  75.1869 0002150  61.4496 298.6854 13.20769597124368
ONEWEB-0369             
1 49295U 21090S   24091.58150244  .00000021  00000+0  19751-4 0  9995
2 49295  87.9099 105.7198 0001797  87.3023 272.8316 13.19724067119898
ONEWEB-0370             
1 49296U 21090T   24091.45361141 -.00000164  00000+0 -43647-3 0  9992
2 49296  87.9148  75.1697 0002019  85.8324 274.3040 13.20770221123243
ONEWEB-0371             
1 49297U 21090U   24091.58939942  .00000045  00000+0  79954-4 0  9994
2 49297  87.9100 105.7081 0001790  92.1121 268.0217 13.19723721119938
ONEWEB-0372             
1 49298U 21090V   24091.51819297  .00000151  00000+0  33858-3 0  9998
2 49298  87.9148  75.1649 0001785  83.9875 276.1461 13.20769852123224
ONEWEB-0373             
1 49299U 21090W   24091.46939842  .00000066  00000+0  13108-3 0  9993
2 49299  87.9147  75.1917 0002110  76.5724 283.5644 13.20768826124402
ONEWEB-0374             
1 49300U 21090X   24091.50904320  .00000133  00000+0  32524-3 0  9992
2 49300  87.8893  90.4332 0001901  83.5543 276.5803 13.14504334121453
ONEWEB-0375             
1 49301U 21090Y   24091.45677879  .00000071  00000+0  14342-3 0  9992
2 49301  87.9147  75.1700 0002665  83.3092 276.8345 13.20769291123909
ONEWEB-0376             
1 49302U 21090Z   24091.58779737  .00000031  00000+0  44106-4 0  9991
2 49302  87.9093 105.7218 0001646  88.2568 271.8753 13.19724560119938
ONEWEB-0377             
1 49303U 21090AA  24091.51847520  .00000100  00000+0  21431-3 0  9993
2 49303  87.9148  75.1492 0002050  93.6823 266.4544 13.20772407123903
ONEWEB-0378             
1 49304U 21090AB  24091.39034122 -.00059394  00000+0 -14478+0 0  9996
2 49304  87.9148  75.1768 0002502  72.2784 287.8623 13.21828963123153
ONEWEB-0379             
1 49305U 21090AC  24091.50427814  .00000076  00000+0  17141-3 0  9999
2 49305  87.8891  90.4367 0001882  85.1213 275.0131 13.14499902121456
ONEWEB-0380             
1 49306U 21090AD  24091.58466342  .00000055  00000+0  10549-3 0  9999
2 49306  87.9098 105.7222 0001995  93.6720 266.4641 13.19724887119904
ONEWEB-0381             
1 49307U 21090AE  24091.51516577  .00000120  00000+0  26405-3 0  9990
2 49307  87.9148  75.1562 0002045  88.0742 272.0626 13.20769329123214
ONEWEB-0382             
1 49308U 21090AF  24091.50254019  .00000107  00000+0  23080-3 0  9991
2 49308  87.9146  75.1561 0002332  78.0865 282.0529 13.20769254123205
ONEWEB-0383             
1 49309U 21090AG  24091.49794083 -.00001440  00000+0 -39193-2 0  9994
2 49309  87.8889  90.4279 0001942  79.3178 280.8170 13.14510440121482
ONEWEB-0384             
1 49310U 21090AH  24091.49938512  .00000084  00000+0  17538-3 0  9994
2 49310  87.9149  75.1668 0002430  76.8109 283.3295 13.20768864123216
ONEWEB-0385             
1 49311U 21090AJ  24091.49464993  .00000016  00000+0  81609-5 0  9999
2 49311  87.9150  75.1693 0002287  82.0097 278.1295 13.20769087123188
ONEWEB-0386             
1 49312U 21090AK  24091.51200956 -.00000193  00000+0 -50543-3 0  9999
2 49312  87.9140  75.1661 0002162  79.3953 280.7424 13.20770625123201
